{"type": "FeatureCollection", "features": [{"type": "Feature", "properties": {"norad_id": 28054, "name": "DMSP 5D-3 F16 (USA 172)", "group": "weather", "lat": 4.7706980133813595, "lon": 176.80985771872918, "alt_km": 851.4251464124964, "timestamp": "2025-12-04T15:47:53.738922+00:00", "meta": {"OBJECT_NAME": "DMSP 5D-3 F16 (USA 172)", "OBJECT_ID": "2003-048A", "EPOCH": "2025-12-04T05:24:35.322912", "MEAN_MOTION": 14.14419585, "ECCENTRICITY": 0.00068551, "INCLINATION": 99.0052, "RA_OF_ASC_NODE": 355.6153, "ARG_OF_PERICENTER": 346.8369, "MEAN_ANOMALY": 145.4102, "EPHEMERIS_TYPE": 0, "CLASSIFICATION_TYPE": "U", "NORAD_CAT_ID": 28054, "ELEMENT_SET_NO": 999, "REV_AT_EPOCH": 14192, "BSTAR": 0.00016845913, "MEAN_MOTION_DOT": 2.77e-06, "MEAN_MOTION_DDOT": 0}, "tle": {"line1": "1 28054U 03048A   25338.22540883  .00000277  00000+0  16846-3 0  9990", "line2": "2 28054  99.0052 355.6153 0006855 346.8369 145.4102 14.14419585141923"}}, "geometry": {"type": "Point", "coordinates": [176.80985771872918, 4.7706980133813595]}}, {"type": "Feature", "properties": {"norad_id": 28912, "name": "METEOSAT-9 (MSG-2)", "group": "weather", "lat": -7.688891236222215, "lon": -3.360326155604357, "alt_km": 35794.20667395235, "timestamp": "2025-12-04T15:47:53.738972+00:00", "meta": {"OBJECT_NAME": "METEOSAT-9 (MSG-2)", "OBJECT_ID": "2005-049B", "EPOCH": "2025-12-02T20:50:55.807872", "MEAN_MOTION": 1.00271253, "ECCENTRICITY": 0.00040042, "INCLINATION": 8.9157, "RA_OF_ASC_NODE": 56.0648, "ARG_OF_PERICENTER": 185.08, "MEAN_ANOMALY": 189.154, "EPHEMERIS_TYPE": 0, "CLASSIFICATION_TYPE": "U", "NORAD_CAT_ID": 28912, "ELEMENT_SET_NO": 999, "REV_AT_EPOCH": 503, "BSTAR": 0, "MEAN_MOTION_DOT": 1.39e-06, "MEAN_MOTION_DDOT": 0}, "tle": {"line1": "1 28912U 05049B   25336.86870148  .00000139  00000+0  00000+0 0  9992", "line2": "2 28912   8.9157  56.0648 0004004 185.0800 189.1540  1.00271253  5030"}}, "geometry": {"type": "Point", "coordinates": [-3.360326155604357, -7.688891236222215]}}, {"type": "Feature", "properties": {"norad_id": 29522, "name": "DMSP 5D-3 F17 (USA 191)", "group": "weather", "lat": 75.81277038990864, "lon": -158.3053250720946, "alt_km": 841.074598289134, "timestamp": "2025-12-04T15:47:53.738990+00:00", "meta": {"OBJECT_NAME": "DMSP 5D-3 F17 (USA 191)", "OBJECT_ID": "2006-050A", "EPOCH": "2025-12-04T06:50:06.672480", "MEAN_MOTION": 14.14914033, "ECCENTRICITY": 0.00091767, "INCLINATION": 98.7394, "RA_OF_ASC_NODE": 343.8499, "ARG_OF_PERICENTER": 251.2715, "MEAN_ANOMALY": 108.7463, "EPHEMERIS_TYPE": 0, "CLASSIFICATION_TYPE": "U", "NORAD_CAT_ID": 29522, "ELEMENT_SET_NO": 999, "REV_AT_EPOCH": 98485, "BSTAR": 0.00020268788, "MEAN_MOTION_DOT": 3.48e-06, "MEAN_MOTION_DDOT": 0}, "tle": {"line1": "1 29522U 06050A   25338.28479945  .00000348  00000+0  20269-3 0  9996", "line2": "2 29522  98.7394 343.8499 0009176 251.2715 108.7463 14.14914033984851"}}, "geometry": {"type": "Point", "coordinates": [-158.3053250720946, 75.81277038990864]}}, {"type": "Feature", "properties": {"norad_id": 32958, "name": "FENGYUN 3A", "group": "weather", "lat": 41.20718357813426, "lon": -89.32122388250359, "alt_km": 821.2736065078852, "timestamp": "2025-12-04T15:47:53.739004+00:00", "meta": {"OBJECT_NAME": "FENGYUN 3A", "OBJECT_ID": "2008-026A", "EPOCH": "2025-12-04T07:08:38.024448", "MEAN_MOTION": 14.19510425, "ECCENTRICITY": 0.00083093, "INCLINATION": 98.6683, "RA_OF_ASC_NODE": 278.0026, "ARG_OF_PERICENTER": 336.4672, "MEAN_ANOMALY": 23.6123, "EPHEMERIS_TYPE": 0, "CLASSIFICATION_TYPE": "U", "NORAD_CAT_ID": 32958, "ELEMENT_SET_NO": 999, "REV_AT_EPOCH": 90775, "BSTAR": 0.0001375658, "MEAN_MOTION_DOT": 2.47e-06, "MEAN_MOTION_DDOT": 0}, "tle": {"line1": "1 32958U 08026A   25338.29766232  .00000247  00000+0  13757-3 0  9999", "line2": "2 32958  98.6683 278.0026 0008309 336.4672  23.6123 14.19510425907752"}}, "geometry": {"type": "Point", "coordinates": [-89.32122388250359, 41.20718357813426]}}, {"type": "Feature", "properties": {"norad_id": 35491, "name": "GOES 14", "group": "weather", "lat": 1.0273312605552216, "lon": -157.669883496876, "alt_km": 35771.05023185986, "timestamp": "2025-12-04T15:47:53.739019+00:00", "meta": {"OBJECT_NAME": "GOES 14", "OBJECT_ID": "2009-033A", "EPOCH": "2025-12-04T06:21:43.497792", "MEAN_MOTION": 1.00272684, "ECCENTRICITY": 0.00041992, "INCLINATION": 1.1757, "RA_OF_ASC_NODE": 85.5091, "ARG_OF_PERICENTER": 151.2623, "MEAN_ANOMALY": 183.6681, "EPHEMERIS_TYPE": 0, "CLASSIFICATION_TYPE": "U", "NORAD_CAT_ID": 35491, "ELEMENT_SET_NO": 999, "REV_AT_EPOCH": 463, "BSTAR": 0, "MEAN_MOTION_DOT": -5.2e-07, "MEAN_MOTION_DDOT": 0}, "tle": {"line1": "1 35491U 09033A   25338.26508678 -.00000052  00000+0  00000+0 0  9996", "line2": "2 35491   1.1757  85.5091 0004199 151.2623 183.6681  1.00272684  4632"}}, "geometry": {"type": "Point", "coordinates": [-157.669883496876, 1.0273312605552216]}}, {"type": "Feature", "properties": {"norad_id": 35951, "name": "DMSP 5D-3 F18 (USA 210)", "group": "weather", "lat": -26.934177883185583, "lon": -40.343056412046074, "alt_km": 851.8947159989802, "timestamp": "2025-12-04T15:47:53.739031+00:00", "meta": {"OBJECT_NAME": "DMSP 5D-3 F18 (USA 210)", "OBJECT_ID": "2009-057A", "EPOCH": "2025-12-04T05:44:34.547136", "MEAN_MOTION": 14.14761844, "ECCENTRICITY": 0.00121159, "INCLINATION": 98.8824, "RA_OF_ASC_NODE": 314.683, "ARG_OF_PERICENTER": 84.8741, "MEAN_ANOMALY": 275.3814, "EPHEMERIS_TYPE": 0, "CLASSIFICATION_TYPE": "U", "NORAD_CAT_ID": 35951, "ELEMENT_SET_NO": 999, "REV_AT_EPOCH": 83202, "BSTAR": 0.00027110172, "MEAN_MOTION_DOT": 4.78e-06, "MEAN_MOTION_DDOT": 0}, "tle": {"line1": "1 35951U 09057A   25338.23928874  .00000478  00000+0  27110-3 0  9990", "line2": "2 35951  98.8824 314.6830 0012115  84.8741 275.3814 14.14761844832026"}}, "geometry": {"type": "Point", "coordinates": [-40.343056412046074, -26.934177883185583]}}, {"type": "Feature", "properties": {"norad_id": 36411, "name": "EWS-G2 (GOES 15)", "group": "weather", "lat": -0.7408510696175105, "lon": 12.23165196682993, "alt_km": 35798.29264396443, "timestamp": "2025-12-04T15:47:53.739044+00:00", "meta": {"OBJECT_NAME": "EWS-G2 (GOES 15)", "OBJECT_ID": "2010-008A", "EPOCH": "2025-12-04T05:27:25.236288", "MEAN_MOTION": 1.00267857, "ECCENTRICITY": 0.00059955, "INCLINATION": 0.7913, "RA_OF_ASC_NODE": 86.0508, "ARG_OF_PERICENTER": 170.4434, "MEAN_ANOMALY": 320.1555, "EPHEMERIS_TYPE": 0, "CLASSIFICATION_TYPE": "U", "NORAD_CAT_ID": 36411, "ELEMENT_SET_NO": 999, "REV_AT_EPOCH": 5768, "BSTAR": 0, "MEAN_MOTION_DOT": 5.3e-07, "MEAN_MOTION_DDOT": 0}, "tle": {"line1": "1 36411U 10008A   25338.22737542  .00000053  00000+0  00000+0 0  9993", "line2": "2 36411   0.7913  86.0508 0005995 170.4434 320.1555  1.00267857 57688"}}, "geometry": {"type": "Point", "coordinates": [12.23165196682993, -0.7408510696175105]}}, {"type": "Feature", "properties": {"norad_id": 36744, "name": "COMS 1", "group": "weather", "lat": 0.0838271158093548, "lon": 78.84898753803826, "alt_km": 35791.45452749766, "timestamp": "2025-12-04T15:47:53.739063+00:00", "meta": {"OBJECT_NAME": "COMS 1", "OBJECT_ID": "2010-032A", "EPOCH": "2025-12-04T05:46:30.906336", "MEAN_MOTION": 1.00269698, "ECCENTRICITY": 0.00011237, "INCLINATION": 4.3192, "RA_OF_ASC_NODE": 78.0925, "ARG_OF_PERICENTER": 187.107, "MEAN_ANOMALY": 22.9126, "EPHEMERIS_TYPE": 0, "CLASSIFICATION_TYPE": "U", "NORAD_CAT_ID": 36744, "ELEMENT_SET_NO": 999, "REV_AT_EPOCH": 4913, "BSTAR": 0, "MEAN_MOTION_DOT": -3.31e-06, "MEAN_MOTION_DDOT": 0}, "tle": {"line1": "1 36744U 10032A   25338.24063549 -.00000331  00000+0  00000+0 0  9990", "line2": "2 36744   4.3192  78.0925 0001123 187.1070  22.9126  1.00269698 49137"}}, "geometry": {"type": "Point", "coordinates": [78.84898753803826, 0.0838271158093548]}}, {"type": "Feature", "properties": {"norad_id": 37214, "name": "FENGYUN 3B", "group": "weather", "lat": -62.15271447869174, "lon": 36.01966459318734, "alt_km": 848.4546942095922, "timestamp": "2025-12-04T15:47:53.739089+00:00", "meta": {"OBJECT_NAME": "FENGYUN 3B", "OBJECT_ID": "2010-059A", "EPOCH": "2025-12-04T08:02:54.648672", "MEAN_MOTION": 14.14786223, "ECCENTRICITY": 0.00224079, "INCLINATION": 98.992, "RA_OF_ASC_NODE": 18.2536, "ARG_OF_PERICENTER": 21.4628, "MEAN_ANOMALY": 71.5929, "EPHEMERIS_TYPE": 0, "CLASSIFICATION_TYPE": "U", "NORAD_CAT_ID": 37214, "ELEMENT_SET_NO": 999, "REV_AT_EPOCH": 77987, "BSTAR": 0.00013624594, "MEAN_MOTION_DOT": 2.18e-06, "MEAN_MOTION_DDOT": 0}, "tle": {"line1": "1 37214U 10059A   25338.33535473  .00000218  00000+0  13625-3 0  9996", "line2": "2 37214  98.9920  18.2536 0022407  21.4628  71.5929 14.14786223779878"}}, "geometry": {"type": "Point", "coordinates": [36.01966459318734, -62.15271447869174]}}, {"type": "Feature", "properties": {"norad_id": 37849, "name": "SUOMI NPP", "group": "weather", "lat": 0.3145203848871929, "lon": -83.9755809077631, "alt_km": 830.8423172427774, "timestamp": "2025-12-04T15:47:53.739104+00:00", "meta": {"OBJECT_NAME": "SUOMI NPP", "OBJECT_ID": "2011-061A", "EPOCH": "2025-12-04T07:20:18.212640", "MEAN_MOTION": 14.19510591, "ECCENTRICITY": 0.00019301, "INCLINATION": 98.776, "RA_OF_ASC_NODE": 275.7238, "ARG_OF_PERICENTER": 135.3321, "MEAN_ANOMALY": 224.8011, "EPHEMERIS_TYPE": 0, "CLASSIFICATION_TYPE": "U", "NORAD_CAT_ID": 37849, "ELEMENT_SET_NO": 999, "REV_AT_EPOCH": 73079, "BSTAR": 0.00012317524, "MEAN_MOTION_DOT": 2.15e-06, "MEAN_MOTION_DDOT": 0}, "tle": {"line1": "1 37849U 11061A   25338.30576635  .00000215  00000+0  12318-3 0  9991", "line2": "2 37849  98.7760 275.7238 0001930 135.3321 224.8011 14.19510591730795"}}, "geometry": {"type": "Point", "coordinates": [-83.9755809077631, 0.3145203848871929]}}]}